QIANFAN-60              
1 62790U 25016F   25316.26553430  .00000101  00000+0  13685-3 0  9990
2 62790  88.9733 106.2273 0017310  74.1232 286.1825 13.50974629 43113
QIANFAN-61              
1 62791U 25016G   25315.85385669  .00000109  00000+0  15036-3 0  9992
2 62791  88.9800 106.4116 0016255  74.7315 285.5632 13.50977790 43078
QIANFAN-62              
1 62792U 25016H   25316.22842269  .00000171  00000+0  24598-3 0  9991
2 62792  88.9746 106.2581 0017621  73.8821 286.4269 13.50981793 43111
QIANFAN-63              
1 62793U 25016J   25316.32714524  .00000176  00000+0  25326-3 0  9990
2 62793  88.9753 106.1974 0017728  78.5016 281.8125 13.50975003 43163
QIANFAN-64              
1 62794U 25016K   25316.22011172  .00000173  00000+0  24879-3 0  9998
2 62794  88.9739 106.1866 0015591  72.6345 287.6510 13.50976763 43148
QIANFAN-65              
1 62795U 25016L   25316.29010666  .00000173  00000+0  24885-3 0  9990
2 62795  88.9736 106.2065 0015440  74.1243 286.1609 13.50975791 43137
QIANFAN-66              
1 62796U 25016M   25316.24486147  .00000166  00000+0  23816-3 0  9992
2 62796  88.9756 106.1753 0016503  70.0153 290.2774 13.50979791 43176
QIANFAN-67              
1 62797U 25016N   25316.24900891  .00000163  00000+0  23346-3 0  9995
2 62797  88.9746 106.2035 0016557  76.2773 284.0221 13.50972625 43149
QIANFAN-68              
1 62798U 25016P   25316.31482187  .00000163  00000+0  23373-3 0  9997
2 62798  88.9749 106.2407 0016588  74.4687 285.8295 13.50974953 43139
QIANFAN-69              
1 62799U 25016Q   25316.25730575  .00000156  00000+0  22285-3 0  9991
2 62799  88.9728 106.1226 0017357  75.4747 284.8328 13.50972155 43169
QIANFAN-70              
1 62800U 25016R   25316.27356270  .00000179  00000+0  25886-3 0  9997
2 62800  88.9749 106.2530 0016825  66.7145 293.5775 13.50975430 43126
QIANFAN-71              
1 62801U 25016S   25316.26953465  .00000166  00000+0  23825-3 0  9993
2 62801  88.9743 106.2348 0017311  78.7164 281.5931 13.50975937 43126
QIANFAN-72              
1 62802U 25016T   25316.28600993  .00000175  00000+0  25140-3 0  9993
2 62802  88.9733 106.2494 0020630  85.0098 275.3407 13.50975860 43116
QIANFAN-73              
1 63159U 25046A   25316.31287847  .00000069  00000+0  88804-4 0  9994
2 63159  88.9754 323.1757 0014035 205.4219 154.6244 13.50973081 43304
QIANFAN-74              
1 63160U 25046B   25316.29636272  .00000083  00000+0  10935-3 0  9998
2 63160  88.9755 323.0660 0002034  89.4346 270.7039 13.50975132 43363
QIANFAN-75              
1 63161U 25046C   25316.28377383  .00000156  00000+0  22332-3 0  9998
2 63161  88.9756 323.3004 0015071 209.2511 150.7798 13.50986603 43231
QIANFAN-76              
1 63162U 25046D   25316.20591573 -.00000127  00000+0 -21473-3 0  9995
2 63162  88.9752 323.2894 0012627 209.2694 150.7751 13.50967640 43239
QIANFAN-77              
1 63163U 25046E   25316.29609475  .00000273  00000+0  18898-3 0  9993
2 63163  88.9755 321.5367 0015077 167.8772 192.2771 13.96082897 44200
QIANFAN-78              
1 63164U 25046F   25316.24702700  .00000045  00000+0  50527-4 0  9997
2 63164  88.9755 323.1494 0013919 212.0246 148.0061 13.50974414 43319
QIANFAN-79              
1 63165U 25046G   25316.20165049  .00000058  00000+0  70849-4 0  9996
2 63165  88.9759 323.2605 0013652 210.1714 149.8653 13.50974601 43259
QIANFAN-80              
1 63166U 25046H   25316.29225044  .00000118  00000+0  16400-3 0  9997
2 63166  88.9756 322.9586 0012524 214.1361 145.8985 13.50977836 43426
QIANFAN-81              
1 63167U 25046J   25316.27112122  .00000170  00000+0  24509-3 0  9995
2 63167  88.9756 323.0289 0013878 202.1637 157.8916 13.50994078 43373
QIANFAN-82              
1 63168U 25046K   25316.30465134  .00000134  00000+0  18861-3 0  9998
2 63168  88.9756 323.0692 0011801 209.5427 150.5059 13.50974637 43360
QIANFAN-83              
1 63169U 25046L   25316.28344534  .00000093  00000+0  10500-3 0  9992
2 63169  88.9756 322.9076 0013448 196.2254 163.8475 13.61968205 43459
QIANFAN-84              
1 63170U 25046M   25316.25863024 -.00000007  00000+0 -28678-4 0  9994
2 63170  88.9751 323.2069 0014862 207.5012 152.5354 13.50986397 43283
QIANFAN-85              
1 63171U 25046N   25316.25520752  .00000147  00000+0  20881-3 0  9993
2 63171  88.9755 323.0790 0012171 208.7142 151.3341 13.50979030 43352
QIANFAN-86              
1 63172U 25046P   25316.26350831  .00000146  00000+0  20747-3 0  9994
2 63172  88.9757 322.9396 0009947 211.9390 148.1159 13.50976097 43433
QIANFAN-87              
1 63173U 25046Q   25316.30880626  .00000057  00000+0  68965-4 0  9996
2 63173  88.9754 323.0477 0010738 206.9183 153.1412 13.50970260 43374
QIANFAN-88              
1 63174U 25046R   25316.25118810  .00000116  00000+0  16040-3 0  9992
2 63174  88.9756 323.0074 0010903 216.1440 143.8975 13.50973884 43390
QIANFAN-89              
1 63175U 25046S   25316.28802427  .00000128  00000+0  17909-3 0  9998
2 63175  88.9756 323.1927 0015479 207.9931 152.0390 13.50976414 43299
QIANFAN-90              
1 63176U 25046T   25316.31675491  .00000049  00000+0  56869-4 0  9993
2 63176  88.9756 323.1621 0012504 204.5187 155.5371 13.50974252 43311
QIANFAN-91              
1 66033U 25233A   25316.30564596  .00001452  00000+0  60253-3 0  9998
2 66033  88.9957  65.5351 0017043 129.1063 231.1649 14.25933943  3707
QIANFAN-92              
1 66034U 25233B   25316.30451702  .00001407  00000+0  58286-3 0  9996
2 66034  88.9956  65.5347 0016667 131.5292 228.7335 14.26015467  3701
QIANFAN-93              
1 66035U 25233C   25316.30297065  .00001470  00000+0  60854-3 0  9991
2 66035  88.9957  65.5347 0015960 131.0021 229.2555 14.26099583  3704
QIANFAN-94              
1 66036U 25233D   25316.30256823  .00001422  00000+0  58794-3 0  9996
2 66036  88.9957  65.5348 0016039 130.6520 229.6071 14.26124474  3708
QIANFAN-95              
1 66037U 25233E   25316.30200145  .00001436  00000+0  59357-3 0  9994
2 66037  88.9957  65.5346 0015998 131.0755 229.1823 14.26169721  3709
QIANFAN-96              
1 66038U 25233F   25315.74042402  .00001003  00000+0  41243-3 0  9997
2 66038  88.9957  65.5991 0016660 134.4525 225.8034 14.26169600  3629
QIANFAN-97              
1 66039U 25233G   25316.30159801  .00001405  00000+0  58016-3 0  9995
2 66039  88.9957  65.5345 0016232 132.3447 227.9125 14.26179131  3701
QIANFAN-98              
1 66040U 25233H   25316.30123702  .00001419  00000+0  58616-3 0  9999
2 66040  88.9957  65.5346 0015851 131.1779 229.0784 14.26200604  3709
QIANFAN-99              
1 66041U 25233J   25316.30102554  .00001391  00000+0  57408-3 0  9999
2 66041  88.9957  65.5344 0015989 130.3115 229.9478 14.26215987  3704
QIANFAN-100             
1 66042U 25233K   25316.30087121  .00001416  00000+0  58442-3 0  9999
2 66042  88.9957  65.5345 0016448 131.8583 228.4017 14.26231601  3706
QIANFAN-101             
1 66043U 25233L   25316.29626702  .00000746  00000+0  30249-3 0  9992
2 66043  88.9958  65.5338 0016467 130.0397 230.2245 14.26644317  3701
QIANFAN-102             
1 66044U 25233M   25316.30074290  .00001460  00000+0  60243-3 0  9995
2 66044  88.9957  65.5343 0016819 131.9182 228.3449 14.26236381  3702
QIANFAN-103             
1 66045U 25233N   25316.30029647  .00001437  00000+0  59281-3 0  9996
2 66045  88.9957  65.5345 0016194 130.8201 229.4400 14.26265484  3706
QIANFAN-104             
1 66046U 25233P   25316.29997266  .00001469  00000+0  60575-3 0  9999
2 66046  88.9957  65.5344 0016198 132.9872 227.2683 14.26286392  3707
QIANFAN-105             
1 66047U 25233Q   25316.29930328  .00001419  00000+0  58443-3 0  9992
2 66047  88.9957  65.5341 0016389 133.0594 227.1975 14.26344375  3709
QIANFAN-106             
1 66048U 25233R   25316.29941100  .00001433  00000+0  59032-3 0  9994
2 66048  88.9957  65.5343 0016256 132.7961 227.4603 14.26327625  3709
QIANFAN-107             
1 66049U 25233S   25316.29906515  .00001416  00000+0  58304-3 0  9998
2 66049  88.9957  65.5341 0017025 130.9173 229.3499 14.26356483  3706
QIANFAN-108             
1 66050U 25233T   25316.29874129  .00001388  00000+0  57094-3 0  9998
2 66050  88.9957  65.5339 0017011 132.5547 227.7086 14.26369317  3707
